ONEWEB-0066             
1 45424U 20020A   24055.60920779 -.00000029  00000+0 -11775-3 0  9995
2 45424  87.9016 188.7657 0001750  90.8868 269.2460 13.11416662192110
ONEWEB-0067             
1 45425U 20020B   24055.63273607 -.00000411  00000+0 -11962-2 0  9992
2 45425  87.9012 188.7257 0001961 104.2090 255.9256 13.11416133192178
ONEWEB-0080             
1 45426U 20020C   24055.42903165  .00000542  00000+0  14940-2 0  9991
2 45426  87.9017 188.8046 0001525  88.8256 271.3047 13.11417293192110
ONEWEB-0090             
1 45427U 20020D   24055.59946965  .00000321  00000+0  87121-3 0  9992
2 45427  87.9021 188.7493 0001582 100.8310 259.2996 13.11417325192103
ONEWEB-0061             
1 45428U 20020E   24055.63194333 -.00000437  00000+0 -12690-2 0  9990
2 45428  87.9018 188.7461 0001660 101.5306 258.6008 13.11418843192063
ONEWEB-0081             
1 45429U 20020F   24055.61246611 -.00000198  00000+0 -59491-3 0  9991
2 45429  87.9016 188.7665 0001832  99.8818 260.2517 13.11416284192179
ONEWEB-0069             
1 45430U 20020G   24055.60272046  .00000166  00000+0  43290-3 0  9996
2 45430  87.9016 188.7567 0001568 103.7437 256.3865 13.11415995192103
ONEWEB-0031             
1 45431U 20020H   24055.42090865  .00000347  00000+0  94369-3 0  9998
2 45431  87.9025 188.7944 0001565 113.5657 246.5635 13.11420420192063
