<?xml version="1.0" encoding="UTF-8"?>
<ndm xmlns:xsi="http://www.w3.org/2001/XMLSchema-instance" xsi:noNamespaceSchemaLocation="https://sanaregistry.org/r/ndmxml_unqualified/ndmxml-2.0.0-master-2.0.xsd">
<omm id="CCSDS_OMM_VERS" version="2.0">
<header><CREATION_DATE/><ORIGINATOR/></header><body><segment><metadata><OBJECT_NAME>ONEWEB-0066</OBJECT_NAME><OBJECT_ID>2020-020A</OBJECT_ID><CENTER_NAME>EARTH</CENTER_NAME><REF_FRAME>TEME</REF_FRAME><TIME_SYSTEM>UTC</TIME_SYSTEM><MEAN_ELEMENT_THEORY>SGP4</MEAN_ELEMENT_THEORY></metadata><data><meanElements><EPOCH>2024-02-24T14:37:15.553056</EPOCH><MEAN_MOTION>13.11416662</MEAN_MOTION><ECCENTRICITY>.000175</ECCENTRICITY><INCLINATION>87.9016</INCLINATION><RA_OF_ASC_NODE>188.7657</RA_OF_ASC_NODE><ARG_OF_PERICENTER>90.8868</ARG_OF_PERICENTER><MEAN_ANOMALY>269.2460</MEAN_ANOMALY></meanElements><tleParameters><EPHEMERIS_TYPE>0</EPHEMERIS_TYPE><CLASSIFICATION_TYPE>U</CLASSIFICATION_TYPE><NORAD_CAT_ID>45424</NORAD_CAT_ID><ELEMENT_SET_NO>999</ELEMENT_SET_NO><REV_AT_EPOCH>19211</REV_AT_EPOCH><BSTAR>-.11775E-3</BSTAR><MEAN_MOTION_DOT>-.29E-6</MEAN_MOTION_DOT><MEAN_MOTION_DDOT>0</MEAN_MOTION_DDOT></tleParameters></data></segment></body></omm>
<omm id="CCSDS_OMM_VERS" version="2.0">
<header><CREATION_DATE/><ORIGINATOR/></header><body><segment><metadata><OBJECT_NAME>ONEWEB-0067</OBJECT_NAME><OBJECT_ID>2020-020B</OBJECT_ID><CENTER_NAME>EARTH</CENTER_NAME><REF_FRAME>TEME</REF_FRAME><TIME_SYSTEM>UTC</TIME_SYSTEM><MEAN_ELEMENT_THEORY>SGP4</MEAN_ELEMENT_THEORY></metadata><data><meanElements><EPOCH>2024-02-24T15:11:08.396448</EPOCH><MEAN_MOTION>13.11416133</MEAN_MOTION><ECCENTRICITY>.0001961</ECCENTRICITY><INCLINATION>87.9012</INCLINATION><RA_OF_ASC_NODE>188.7257</RA_OF_ASC_NODE><ARG_OF_PERICENTER>104.2090</ARG_OF_PERICENTER><MEAN_ANOMALY>255.9256</MEAN_ANOMALY></meanElements><tleParameters><EPHEMERIS_TYPE>0</EPHEMERIS_TYPE><CLASSIFICATION_TYPE>U</CLASSIFICATION_TYPE><NORAD_CAT_ID>45425</NORAD_CAT_ID><ELEMENT_SET_NO>999</ELEMENT_SET_NO><REV_AT_EPOCH>19217</REV_AT_EPOCH><BSTAR>-.11962E-2</BSTAR><MEAN_MOTION_DOT>-.411E-5</MEAN_MOTION_DOT><MEAN_MOTION_DDOT>0</MEAN_MOTION_DDOT></tleParameters></data></segment></body></omm>
<omm id="CCSDS_OMM_VERS" version="2.0">
<header><CREATION_DATE/><ORIGINATOR/></header><body><segment><metadata><OBJECT_NAME>ONEWEB-0080</OBJECT_NAME><OBJECT_ID>2020-020C</OBJECT_ID><CENTER_NAME>EARTH</CENTER_NAME><REF_FRAME>TEME</REF_FRAME><TIME_SYSTEM>UTC</TIME_SYSTEM><MEAN_ELEMENT_THEORY>SGP4</MEAN_ELEMENT_THEORY></metadata><data><meanElements><EPOCH>2024-02-24T10:17:48.334560</EPOCH><MEAN_MOTION>13.11417293</MEAN_MOTION><ECCENTRICITY>.0001525</ECCENTRICITY><INCLINATION>87.9017</INCLINATION><RA_OF_ASC_NODE>188.8046</RA_OF_ASC_NODE><ARG_OF_PERICENTER>88.8256</ARG_OF_PERICENTER><MEAN_ANOMALY>271.3047</MEAN_ANOMALY></meanElements><tleParameters><EPHEMERIS_TYPE>0</EPHEMERIS_TYPE><CLASSIFICATION_TYPE>U</CLASSIFICATION_TYPE><NORAD_CAT_ID>45426</NORAD_CAT_ID><ELEMENT_SET_NO>999</ELEMENT_SET_NO><REV_AT_EPOCH>19211</REV_AT_EPOCH><BSTAR>.1494E-2</BSTAR><MEAN_MOTION_DOT>.542E-5</MEAN_MOTION_DOT><MEAN_MOTION_DDOT>0</MEAN_MOTION_DDOT></tleParameters></data></segment></body></omm>
<omm id="CCSDS_OMM_VERS" version="2.0">
<header><CREATION_DATE/><ORIGINATOR/></header><body><segment><metadata><OBJECT_NAME>ONEWEB-0090</OBJECT_NAME><OBJECT_ID>2020-020D</OBJECT_ID><CENTER_NAME>EARTH</CENTER_NAME><REF_FRAME>TEME</REF_FRAME><TIME_SYSTEM>UTC</TIME_SYSTEM><MEAN_ELEMENT_THEORY>SGP4</MEAN_ELEMENT_THEORY></metadata><data><meanElements><EPOCH>2024-02-24T14:23:14.177760</EPOCH><MEAN_MOTION>13.11417325</MEAN_MOTION><ECCENTRICITY>.0001582</ECCENTRICITY><INCLINATION>87.9021</INCLINATION><RA_OF_ASC_NODE>188.7493</RA_OF_ASC_NODE><ARG_OF_PERICENTER>100.8310</ARG_OF_PERICENTER><MEAN_ANOMALY>259.2996</MEAN_ANOMALY></meanElements><tleParameters><EPHEMERIS_TYPE>0</EPHEMERIS_TYPE><CLASSIFICATION_TYPE>U</CLASSIFICATION_TYPE><NORAD_CAT_ID>45427</NORAD_CAT_ID><ELEMENT_SET_NO>999</ELEMENT_SET_NO><REV_AT_EPOCH>19210</REV_AT_EPOCH><BSTAR>.87121E-3</BSTAR><MEAN_MOTION_DOT>.321E-5</MEAN_MOTION_DOT><MEAN_MOTION_DDOT>0</MEAN_MOTION_DDOT></tleParameters></data></segment></body></omm>
<omm id="CCSDS_OMM_VERS" version="2.0">
<header><CREATION_DATE/><ORIGINATOR/></header><body><segment><metadata><OBJECT_NAME>ONEWEB-0061</OBJECT_NAME><OBJECT_ID>2020-020E</OBJECT_ID><CENTER_NAME>EARTH</CENTER_NAME><REF_FRAME>TEME</REF_FRAME><TIME_SYSTEM>UTC</TIME_SYSTEM><MEAN_ELEMENT_THEORY>SGP4</MEAN_ELEMENT_THEORY></metadata><data><meanElements><EPOCH>2024-02-24T15:09:59.903712</EPOCH><MEAN_MOTION>13.11418843</MEAN_MOTION><ECCENTRICITY>.000166</ECCENTRICITY><INCLINATION>87.9018</INCLINATION><RA_OF_ASC_NODE>188.7461</RA_OF_ASC_NODE><ARG_OF_PERICENTER>101.5306</ARG_OF_PERICENTER><MEAN_ANOMALY>258.6008</MEAN_ANOMALY></meanElements><tleParameters><EPHEMERIS_TYPE>0</EPHEMERIS_TYPE><CLASSIFICATION_TYPE>U</CLASSIFICATION_TYPE><NORAD_CAT_ID>45428</NORAD_CAT_ID><ELEMENT_SET_NO>999</ELEMENT_SET_NO><REV_AT_EPOCH>19206</REV_AT_EPOCH><BSTAR>-.1269E-2</BSTAR><MEAN_MOTION_DOT>-.437E-5</MEAN_MOTION_DOT><MEAN_MOTION_DDOT>0</MEAN_MOTION_DDOT></tleParameters></data></segment></body></omm>
<omm id="CCSDS_OMM_VERS" version="2.0">
<header><CREATION_DATE/><ORIGINATOR/></header><body><segment><metadata><OBJECT_NAME>ONEWEB-0081</OBJECT_NAME><OBJECT_ID>2020-020F</OBJECT_ID><CENTER_NAME>EARTH</CENTER_NAME><REF_FRAME>TEME</REF_FRAME><TIME_SYSTEM>UTC</TIME_SYSTEM><MEAN_ELEMENT_THEORY>SGP4</MEAN_ELEMENT_THEORY></metadata><data><meanElements><EPOCH>2024-02-24T14:41:57.071904</EPOCH><MEAN_MOTION>13.11416284</MEAN_MOTION><ECCENTRICITY>.0001832</ECCENTRICITY><INCLINATION>87.9016</INCLINATION><RA_OF_ASC_NODE>188.7665</RA_OF_ASC_NODE><ARG_OF_PERICENTER>99.8818</ARG_OF_PERICENTER><MEAN_ANOMALY>260.2517</MEAN_ANOMALY></meanElements><tleParameters><EPHEMERIS_TYPE>0</EPHEMERIS_TYPE><CLASSIFICATION_TYPE>U</CLASSIFICATION_TYPE><NORAD_CAT_ID>45429</NORAD_CAT_ID><ELEMENT_SET_NO>999</ELEMENT_SET_NO><REV_AT_EPOCH>19217</REV_AT_EPOCH><BSTAR>-.59491E-3</BSTAR><MEAN_MOTION_DOT>-.198E-5</MEAN_MOTION_DOT><MEAN_MOTION_DDOT>0</MEAN_MOTION_DDOT></tleParameters></data></segment></body></omm>
<omm id="CCSDS_OMM_VERS" version="2.0">
<header><CREATION_DATE/><ORIGINATOR/></header><body><segment><metadata><OBJECT_NAME>ONEWEB-0069</OBJECT_NAME><OBJECT_ID>2020-020G</OBJECT_ID><CENTER_NAME>EARTH</CENTER_NAME><REF_FRAME>TEME</REF_FRAME><TIME_SYSTEM>UTC</TIME_SYSTEM><MEAN_ELEMENT_THEORY>SGP4</MEAN_ELEMENT_THEORY></metadata><data><meanElements><EPOCH>2024-02-24T14:27:55.047744</EPOCH><MEAN_MOTION>13.11415995</MEAN_MOTION><ECCENTRICITY>.0001568</ECCENTRICITY><INCLINATION>87.9016</INCLINATION><RA_OF_ASC_NODE>188.7567</RA_OF_ASC_NODE><ARG_OF_PERICENTER>103.7437</ARG_OF_PERICENTER><MEAN_ANOMALY>256.3865</MEAN_ANOMALY></meanElements><tleParameters><EPHEMERIS_TYPE>0</EPHEMERIS_TYPE><CLASSIFICATION_TYPE>U</CLASSIFICATION_TYPE><NORAD_CAT_ID>45430</NORAD_CAT_ID><ELEMENT_SET_NO>999</ELEMENT_SET_NO><REV_AT_EPOCH>19210</REV_AT_EPOCH><BSTAR>.4329E-3</BSTAR><MEAN_MOTION_DOT>.166E-5</MEAN_MOTION_DOT><MEAN_MOTION_DDOT>0</MEAN_MOTION_DDOT></tleParameters></data></segment></body></omm>
<omm id="CCSDS_OMM_VERS" version="2.0">
<header><CREATION_DATE/><ORIGINATOR/></header><body><segment><metadata><OBJECT_NAME>ONEWEB-0031</OBJECT_NAME><OBJECT_ID>2020-020H</OBJECT_ID><CENTER_NAME>EARTH</CENTER_NAME><REF_FRAME>TEME</REF_FRAME><TIME_SYSTEM>UTC</TIME_SYSTEM><MEAN_ELEMENT_THEORY>SGP4</MEAN_ELEMENT_THEORY></metadata><data><meanElements><EPOCH>2024-02-24T10:06:06.507360</EPOCH><MEAN_MOTION>13.11420420</MEAN_MOTION><ECCENTRICITY>.0001565</ECCENTRICITY><INCLINATION>87.9025</INCLINATION><RA_OF_ASC_NODE>188.7944</RA_OF_ASC_NODE><ARG_OF_PERICENTER>113.5657</ARG_OF_PERICENTER><MEAN_ANOMALY>246.5635</MEAN_ANOMALY></meanElements><tleParameters><EPHEMERIS_TYPE>0</EPHEMERIS_TYPE><CLASSIFICATION_TYPE>U</CLASSIFICATION_TYPE><NORAD_CAT_ID>45431</NORAD_CAT_ID><ELEMENT_SET_NO>999</ELEMENT_SET_NO><REV_AT_EPOCH>19206</REV_AT_EPOCH><BSTAR>.94369E-3</BSTAR><MEAN_MOTION_DOT>.347E-5</MEAN_MOTION_DOT><MEAN_MOTION_DDOT>0</MEAN_MOTION_DDOT></tleParameters></data></segment></body></omm>

</ndm>
